{"type": "FeatureCollection", "features": [ {"type": "Feature", "properties": {"norad_id": 66366, "name": "STARLINK-35845", "group": "last-30-days", "lat": 26.86462384672558, "lon": 114.12668256360234, "alt_km": 387.0881673064914, "timestamp": "2025-12-04T09:47:36.300887+00:00", "meta": {"OBJECT_NAME": "STARLINK-35845", "OBJECT_ID": "2025-254U", "EPOCH": "2025-12-04T04:00:03.000096", "MEAN_MOTION": 15.60100585, "ECCENTRICITY": 0.0001216, "INCLINATION": 53.1593, "RA_OF_ASC_NODE": 317.6193, "ARG_OF_PERICENTER": 89.2051, "MEAN_ANOMALY": 140.4674, "EPHEMERIS_TYPE": 0, "CLASSIFICATION_TYPE": "U", "NORAD_CAT_ID": 66366, "ELEMENT_SET_NO": 999, "REV_AT_EPOCH": 554, "BSTAR": -0.028251, "MEAN_MOTION_DOT": -0.02043538, "MEAN_MOTION_DDOT": 0}, "tle": {"line1": "1 66366U 25254U   25338.16670139 -.02043538  00000+0 -28251-1 0  9994", "line2": "2 66366  53.1593 317.6193 0001216  89.2051 140.4674 15.60100585  5541"}}, "geometry": {"type": "Point", "coordinates": [114.12668256360234, 26.86462384672558]}}, {"type": "Feature", "properties": {"norad_id": 66367, "name": "STARLINK-35846", "group": "last-30-days", "lat": 23.995879785219326, "lon": 116.94273065448142, "alt_km": 387.4877040974343, "timestamp": "2025-12-04T09:47:36.300898+00:00", "meta": {"OBJECT_NAME": "STARLINK-35846", "OBJECT_ID": "2025-254V", "EPOCH": "2025-12-04T04:00:03.000096", "MEAN_MOTION": 15.60101002, "ECCENTRICITY": 0.0001366, "INCLINATION": 53.1593, "RA_OF_ASC_NODE": 317.6111, "ARG_OF_PERICENTER": 93.6672, "MEAN_ANOMALY": 139.8375, "EPHEMERIS_TYPE": 0, "CLASSIFICATION_TYPE": "U", "NORAD_CAT_ID": 66367, "ELEMENT_SET_NO": 999, "REV_AT_EPOCH": 549, "BSTAR": -0.028224, "MEAN_MOTION_DOT": -0.02041957, "MEAN_MOTION_DDOT": 0}, "tle": {"line1": "1 66367U 25254V   25338.16670139 -.02041957  00000+0 -28224-1 0  9998", "line2": "2 66367  53.1593 317.6111 0001366  93.6672 139.8375 15.60101002  5495"}}, "geometry": {"type": "Point", "coordinates": [116.94273065448142, 23.995879785219326]}}, {"type": "Feature", "properties": {"norad_id": 66368, "name": "STARLINK-34861", "group": "last-30-days", "lat": -47.73855475441945, "lon": -168.15851627527678, "alt_km": 350.9560065156211, "timestamp": "2025-12-04T09:47:36.300908+00:00", "meta": {"OBJECT_NAME": "STARLINK-34861", "OBJECT_ID": "2025-254W", "EPOCH": "2025-12-04T02:39:07.892928", "MEAN_MOTION": 15.7434685, "ECCENTRICITY": 0.0001183, "INCLINATION": 53.1567, "RA_OF_ASC_NODE": 317.7146, "ARG_OF_PERICENTER": 123.9885, "MEAN_ANOMALY": 236.1247, "EPHEMERIS_TYPE": 0, "CLASSIFICATION_TYPE": "U", "NORAD_CAT_ID": 66368, "ELEMENT_SET_NO": 999, "REV_AT_EPOCH": 432, "BSTAR": 0.0023569, "MEAN_MOTION_DOT": 0.00362265, "MEAN_MOTION_DDOT": 0}, "tle": {"line1": "1 66368U 25254W   25338.11050802  .00362265  00000+0  23569-2 0  9995", "line2": "2 66368  53.1567 317.7146 0001183 123.9885 236.1247 15.74346850  4323"}}, "geometry": {"type": "Point", "coordinates": [-168.15851627527678, -47.73855475441945]}}, {"type": "Feature", "properties": {"norad_id": 66369, "name": "STARLINK-35795", "group": "last-30-days", "lat": -46.86655200407074, "lon": -170.59659212516308, "alt_km": 350.81292820583803, "timestamp": "2025-12-04T09:47:36.300921+00:00", "meta": {"OBJECT_NAME": "STARLINK-35795", "OBJECT_ID": "2025-254X", "EPOCH": "2025-12-04T02:39:36.815328", "MEAN_MOTION": 15.74349696, "ECCENTRICITY": 0.0003045, "INCLINATION": 53.1567, "RA_OF_ASC_NODE": 317.7168, "ARG_OF_PERICENTER": 147.1731, "MEAN_ANOMALY": 212.9479, "EPHEMERIS_TYPE": 0, "CLASSIFICATION_TYPE": "U", "NORAD_CAT_ID": 66369, "ELEMENT_SET_NO": 999, "REV_AT_EPOCH": 432, "BSTAR": 0.0021458, "MEAN_MOTION_DOT": 0.00328479, "MEAN_MOTION_DDOT": 0}, "tle": {"line1": "1 66369U 25254X   25338.11084277  .00328479  00000+0  21458-2 0  9993", "line2": "2 66369  53.1567 317.7168 0003045 147.1731 212.9479 15.74349696  4325"}}, "geometry": {"type": "Point", "coordinates": [-170.59659212516308, -46.86655200407074]}}, {"type": "Feature", "properties": {"norad_id": 66370, "name": "STARLINK-35824", "group": "last-30-days", "lat": -48.623662890388964, "lon": -165.42305532534547, "alt_km": 350.2729974047579, "timestamp": "2025-12-04T09:47:36.300932+00:00", "meta": {"OBJECT_NAME": "STARLINK-35824", "OBJECT_ID": "2025-254Y", "EPOCH": "2025-12-04T02:38:39.081120", "MEAN_MOTION": 15.74459234, "ECCENTRICITY": 3.67e-05, "INCLINATION": 53.1568, "RA_OF_ASC_NODE": 317.7129, "ARG_OF_PERICENTER": 67.6917, "MEAN_ANOMALY": 292.4142, "EPHEMERIS_TYPE": 0, "CLASSIFICATION_TYPE": "U", "NORAD_CAT_ID": 66370, "ELEMENT_SET_NO": 999, "REV_AT_EPOCH": 432, "BSTAR": 0.0031685, "MEAN_MOTION_DOT": 0.00497732, "MEAN_MOTION_DDOT": 0}, "tle": {"line1": "1 66370U 25254Y   25338.11017455  .00497732  00000+0  31685-2 0  9991", "line2": "2 66370  53.1568 317.7129 0000367  67.6917 292.4142 15.74459234  4321"}}, "geometry": {"type": "Point", "coordinates": [-165.42305532534547, -48.623662890388964]}}, {"type": "Feature", "properties": {"norad_id": 66371, "name": "STARLINK-35804", "group": "last-30-days", "lat": -50.031249464089385, "lon": -160.31816017250816, "alt_km": 351.36068067945143, "timestamp": "2025-12-04T09:47:36.300957+00:00", "meta": {"OBJECT_NAME": "STARLINK-35804", "OBJECT_ID": "2025-254Z", "EPOCH": "2025-12-04T04:09:05.558400", "MEAN_MOTION": 15.74336178, "ECCENTRICITY": 8.99e-05, "INCLINATION": 53.1566, "RA_OF_ASC_NODE": 317.3925, "ARG_OF_PERICENTER": 86.87, "MEAN_ANOMALY": 273.2423, "EPHEMERIS_TYPE": 0, "CLASSIFICATION_TYPE": "U", "NORAD_CAT_ID": 66371, "ELEMENT_SET_NO": 999, "REV_AT_EPOCH": 433, "BSTAR": 0.0022578, "MEAN_MOTION_DOT": 0.00346193, "MEAN_MOTION_DDOT": 0}, "tle": {"line1": "1 66371U 25254Z   25338.17298100  .00346193  00000+0  22578-2 0  9991", "line2": "2 66371  53.1566 317.3925 0000899  86.8700 273.2423 15.74336178  4334"}}, "geometry": {"type": "Point", "coordinates": [-160.31816017250816, -50.031249464089385]}}, {"type": "Feature", "properties": {"norad_id": 66372, "name": "STARLINK-35821", "group": "last-30-days", "lat": -49.34269998981272, "lon": -162.95300273125235, "alt_km": 351.754729135504, "timestamp": "2025-12-04T09:47:36.300968+00:00", "meta": {"OBJECT_NAME": "STARLINK-35821", "OBJECT_ID": "2025-254AA", "EPOCH": "2025-12-04T02:38:09.425184", "MEAN_MOTION": 15.74311986, "ECCENTRICITY": 0.0001894, "INCLINATION": 53.1567, "RA_OF_ASC_NODE": 317.7113, "ARG_OF_PERICENTER": 102.3262, "MEAN_ANOMALY": 257.797, "EPHEMERIS_TYPE": 0, "CLASSIFICATION_TYPE": "U", "NORAD_CAT_ID": 66372, "ELEMENT_SET_NO": 999, "REV_AT_EPOCH": 432, "BSTAR": 0.0023713, "MEAN_MOTION_DOT": 0.00364005, "MEAN_MOTION_DDOT": 0}, "tle": {"line1": "1 66372U 25254AA  25338.10983131  .00364005  00000+0  23713-2 0  9994", "line2": "2 66372  53.1567 317.7113 0001894 102.3262 257.7970 15.74311986  4325"}}, "geometry": {"type": "Point", "coordinates": [-162.95300273125235, -49.34269998981272]}}, {"type": "Feature", "properties": {"norad_id": 66373, "name": "STARLINK-35809", "group": "last-30-days", "lat": -50.7127608967921, "lon": -157.3560260013214, "alt_km": 351.2111100798047, "timestamp": "2025-12-04T09:47:36.300978+00:00", "meta": {"OBJECT_NAME": "STARLINK-35809", "OBJECT_ID": "2025-254AB", "EPOCH": "2025-12-04T02:37:11.292672", "MEAN_MOTION": 15.74358169, "ECCENTRICITY": 0.0001053, "INCLINATION": 53.1566, "RA_OF_ASC_NODE": 317.7054, "ARG_OF_PERICENTER": 75.9118, "MEAN_ANOMALY": 284.2018, "EPHEMERIS_TYPE": 0, "CLASSIFICATION_TYPE": "U", "NORAD_CAT_ID": 66373, "ELEMENT_SET_NO": 999, "REV_AT_EPOCH": 432, "BSTAR": 0.0026661, "MEAN_MOTION_DOT": 0.00412582, "MEAN_MOTION_DDOT": 0}, "tle": {"line1": "1 66373U 25254AB  25338.10915848  .00412582  00000+0  26661-2 0  9994", "line2": "2 66373  53.1566 317.7054 0001053  75.9118 284.2018 15.74358169  4323"}}, "geometry": {"type": "Point", "coordinates": [-157.3560260013214, -50.7127608967921]}}, {"type": "Feature", "properties": {"norad_id": 66374, "name": "STARLINK-35831", "group": "last-30-days", "lat": -51.30903546284495, "lon": -154.35539880619697, "alt_km": 351.6720450830826, "timestamp": "2025-12-04T09:47:36.300988+00:00", "meta": {"OBJECT_NAME": "STARLINK-35831", "OBJECT_ID": "2025-254AC", "EPOCH": "2025-12-04T02:36:41.952096", "MEAN_MOTION": 15.74376092, "ECCENTRICITY": 0.0002461, "INCLINATION": 53.1567, "RA_OF_ASC_NODE": 317.7024, "ARG_OF_PERICENTER": 116.307, "MEAN_ANOMALY": 243.8203, "EPHEMERIS_TYPE": 0, "CLASSIFICATION_TYPE": "U", "NORAD_CAT_ID": 66374, "ELEMENT_SET_NO": 999, "REV_AT_EPOCH": 432, "BSTAR": 0.0028555, "MEAN_MOTION_DOT": 0.00443929, "MEAN_MOTION_DDOT": 0}, "tle": {"line1": "1 66374U 25254AC  25338.10881889  .00443929  00000+0  28555-2 0  9995", "line2": "2 66374  53.1567 317.7024 0002461 116.3070 243.8203 15.74376092  4325"}}, "geometry": {"type": "Point", "coordinates": [-154.35539880619697, -51.30903546284495]}}, {"type": "Feature", "properties": {"norad_id": 66375, "name": "STARLINK-35826", "group": "last-30-days", "lat": -51.77079712266452, "lon": -151.63708697134604, "alt_km": 351.64088262080895, "timestamp": "2025-12-04T09:47:36.300999+00:00", "meta": {"OBJECT_NAME": "STARLINK-35826", "OBJECT_ID": "2025-254AD", "EPOCH": "2025-12-04T02:36:12.919104", "MEAN_MOTION": 15.74307679, "ECCENTRICITY": 0.0001369, "INCLINATION": 53.1565, "RA_OF_ASC_NODE": 317.7005, "ARG_OF_PERICENTER": 116.471, "MEAN_ANOMALY": 243.645, "EPHEMERIS_TYPE": 0, "CLASSIFICATION_TYPE": "U", "NORAD_CAT_ID": 66375, "ELEMENT_SET_NO": 999, "REV_AT_EPOCH": 432, "BSTAR": 0.0017206, "MEAN_MOTION_DOT": 0.00260646, "MEAN_MOTION_DDOT": 0}, "tle": {"line1": "1 66375U 25254AD  25338.10848286  .00260646  00000+0  17206-2 0  9994", "line2": "2 66375  53.1565 317.7005 0001369 116.4710 243.6450 15.74307679  4328"}}, "geometry": {"type": "Point", "coordinates": [-151.63708697134604, -51.77079712266452]}}]}